<?xml version="1.0" encoding="utf-8"?>
<kml xmlns:xsd="http://www.w3.org/2001/XMLSchema" xmlns:xsi="http://www.w3.org/2001/XMLSchema-instance" xmlns="http://www.opengis.net/kml/2.2">
  <Document>
    <name>KML Export 7/2/2026 11:20:33 AM</name>
    <Style id="style_emergency">
      <IconStyle>
        <colorMode>normal</colorMode>
        <Icon>
          <href>http://maps.google.com/mapfiles/kml/shapes/caution.png</href>
        </Icon>
      </IconStyle>
      <BalloonStyle>
        <text>&lt;table&gt;&lt;tr&gt;&lt;td&gt;Id&lt;/td&gt;&lt;td&gt; $[Id] &lt;/td&gt;&lt;/tr&gt;&lt;tr&gt;&lt;td&gt;Time&lt;/td&gt;&lt;td&gt; $[Time] &lt;/td&gt;&lt;/tr&gt;&lt;tr&gt;&lt;td&gt;Time UTC&lt;/td&gt;&lt;td&gt; $[Time UTC] &lt;/td&gt;&lt;/tr&gt;&lt;tr&gt;&lt;td&gt;Name&lt;/td&gt;&lt;td&gt; $[Name] &lt;/td&gt;&lt;/tr&gt;&lt;tr&gt;&lt;td&gt;Map Display Name&lt;/td&gt;&lt;td&gt; $[Map Display Name] &lt;/td&gt;&lt;/tr&gt;&lt;tr&gt;&lt;td&gt;Device Type&lt;/td&gt;&lt;td&gt; $[Device Type] &lt;/td&gt;&lt;/tr&gt;&lt;tr&gt;&lt;td&gt;IMEI&lt;/td&gt;&lt;td&gt; $[IMEI] &lt;/td&gt;&lt;/tr&gt;&lt;tr&gt;&lt;td&gt;Incident Id&lt;/td&gt;&lt;td&gt; $[Incident Id] &lt;/td&gt;&lt;/tr&gt;&lt;tr&gt;&lt;td&gt;Latitude&lt;/td&gt;&lt;td&gt; $[Latitude] &lt;/td&gt;&lt;/tr&gt;&lt;tr&gt;&lt;td&gt;Longitude&lt;/td&gt;&lt;td&gt; $[Longitude] &lt;/td&gt;&lt;/tr&gt;&lt;tr&gt;&lt;td&gt;Elevation&lt;/td&gt;&lt;td&gt; $[Elevation] &lt;/td&gt;&lt;/tr&gt;&lt;tr&gt;&lt;td&gt;Velocity&lt;/td&gt;&lt;td&gt; $[Velocity] &lt;/td&gt;&lt;/tr&gt;&lt;tr&gt;&lt;td&gt;Course&lt;/td&gt;&lt;td&gt; $[Course] &lt;/td&gt;&lt;/tr&gt;&lt;tr&gt;&lt;td&gt;Valid GPS Fix&lt;/td&gt;&lt;td&gt; $[Valid GPS Fix] &lt;/td&gt;&lt;/tr&gt;&lt;tr&gt;&lt;td&gt;In Emergency&lt;/td&gt;&lt;td&gt; $[In Emergency] &lt;/td&gt;&lt;/tr&gt;&lt;tr&gt;&lt;td&gt;Text&lt;/td&gt;&lt;td&gt; $[Text] &lt;/td&gt;&lt;/tr&gt;&lt;tr&gt;&lt;td&gt;Note&lt;/td&gt;&lt;td&gt; $[Note] &lt;/td&gt;&lt;/tr&gt;&lt;tr&gt;&lt;td&gt;Event&lt;/td&gt;&lt;td&gt; $[Event] &lt;/td&gt;&lt;/tr&gt;&lt;tr&gt;&lt;td&gt;Device Identifier&lt;/td&gt;&lt;td&gt; $[Device Identifier] &lt;/td&gt;&lt;/tr&gt;&lt;tr&gt;&lt;td&gt;SpatialRefSystem&lt;/td&gt;&lt;td&gt; $[SpatialRefSystem] &lt;/td&gt;&lt;/tr&gt;&lt;/table&gt;</text>
      </BalloonStyle>
    </Style>
    <Style id="style_6606925">
      <IconStyle>
        <color>ffff5500</color>
        <colorMode>normal</colorMode>
        <Icon>
          <href>http://maps.google.com/mapfiles/kml/paddle/wht-blank.png</href>
        </Icon>
      </IconStyle>
      <BalloonStyle>
        <text>&lt;table&gt;&lt;tr&gt;&lt;td&gt;Id&lt;/td&gt;&lt;td&gt; $[Id] &lt;/td&gt;&lt;/tr&gt;&lt;tr&gt;&lt;td&gt;Time&lt;/td&gt;&lt;td&gt; $[Time] &lt;/td&gt;&lt;/tr&gt;&lt;tr&gt;&lt;td&gt;Time UTC&lt;/td&gt;&lt;td&gt; $[Time UTC] &lt;/td&gt;&lt;/tr&gt;&lt;tr&gt;&lt;td&gt;Name&lt;/td&gt;&lt;td&gt; $[Name] &lt;/td&gt;&lt;/tr&gt;&lt;tr&gt;&lt;td&gt;Map Display Name&lt;/td&gt;&lt;td&gt; $[Map Display Name] &lt;/td&gt;&lt;/tr&gt;&lt;tr&gt;&lt;td&gt;Device Type&lt;/td&gt;&lt;td&gt; $[Device Type] &lt;/td&gt;&lt;/tr&gt;&lt;tr&gt;&lt;td&gt;IMEI&lt;/td&gt;&lt;td&gt; $[IMEI] &lt;/td&gt;&lt;/tr&gt;&lt;tr&gt;&lt;td&gt;Incident Id&lt;/td&gt;&lt;td&gt; $[Incident Id] &lt;/td&gt;&lt;/tr&gt;&lt;tr&gt;&lt;td&gt;Latitude&lt;/td&gt;&lt;td&gt; $[Latitude] &lt;/td&gt;&lt;/tr&gt;&lt;tr&gt;&lt;td&gt;Longitude&lt;/td&gt;&lt;td&gt; $[Longitude] &lt;/td&gt;&lt;/tr&gt;&lt;tr&gt;&lt;td&gt;Elevation&lt;/td&gt;&lt;td&gt; $[Elevation] &lt;/td&gt;&lt;/tr&gt;&lt;tr&gt;&lt;td&gt;Velocity&lt;/td&gt;&lt;td&gt; $[Velocity] &lt;/td&gt;&lt;/tr&gt;&lt;tr&gt;&lt;td&gt;Course&lt;/td&gt;&lt;td&gt; $[Course] &lt;/td&gt;&lt;/tr&gt;&lt;tr&gt;&lt;td&gt;Valid GPS Fix&lt;/td&gt;&lt;td&gt; $[Valid GPS Fix] &lt;/td&gt;&lt;/tr&gt;&lt;tr&gt;&lt;td&gt;In Emergency&lt;/td&gt;&lt;td&gt; $[In Emergency] &lt;/td&gt;&lt;/tr&gt;&lt;tr&gt;&lt;td&gt;Text&lt;/td&gt;&lt;td&gt; $[Text] &lt;/td&gt;&lt;/tr&gt;&lt;tr&gt;&lt;td&gt;Note&lt;/td&gt;&lt;td&gt; $[Note] &lt;/td&gt;&lt;/tr&gt;&lt;tr&gt;&lt;td&gt;Event&lt;/td&gt;&lt;td&gt; $[Event] &lt;/td&gt;&lt;/tr&gt;&lt;tr&gt;&lt;td&gt;Device Identifier&lt;/td&gt;&lt;td&gt; $[Device Identifier] &lt;/td&gt;&lt;/tr&gt;&lt;tr&gt;&lt;td&gt;SpatialRefSystem&lt;/td&gt;&lt;td&gt; $[SpatialRefSystem] &lt;/td&gt;&lt;/tr&gt;&lt;/table&gt;</text>
      </BalloonStyle>
    </Style>
    <Style id="waypointstyle_6606925">
      <IconStyle>
        <color>ffff5500</color>
        <colorMode>normal</colorMode>
        <Icon>
          <href>http://maps.google.com/mapfiles/kml/paddle/wht-blank.png</href>
        </Icon>
      </IconStyle>
      <BalloonStyle>
        <text>&lt;table&gt;&lt;tr&gt;&lt;td&gt;Time&lt;/td&gt;&lt;td&gt; $[Time] &lt;/td&gt;&lt;/tr&gt;&lt;tr&gt;&lt;td&gt;Time UTC&lt;/td&gt;&lt;td&gt; $[Time UTC] &lt;/td&gt;&lt;/tr&gt;&lt;tr&gt;&lt;td&gt;Latitude&lt;/td&gt;&lt;td&gt; $[Latitude] &lt;/td&gt;&lt;/tr&gt;&lt;tr&gt;&lt;td&gt;Longitude&lt;/td&gt;&lt;td&gt; $[Longitude] &lt;/td&gt;&lt;/tr&gt;&lt;tr&gt;&lt;td&gt;Text&lt;/td&gt;&lt;td&gt; $[Text] &lt;/td&gt;&lt;/tr&gt;&lt;/table&gt;</text>
      </BalloonStyle>
    </Style>
    <Style id="linestyle_6606925">
      <LineStyle>
        <color>ffff5500</color>
        <colorMode>normal</colorMode>
        <width>1</width>
        <labelVisibility xmlns="http://www.google.com/kml/ext/2.2">false</labelVisibility>
      </LineStyle>
    </Style>
    <Folder>
      <name>Liz Howell </name>
      <Placemark>
        <name>Liz Howell </name>
        <visibility>true</visibility>
        <description />
        <TimeStamp>
          <when>2026-05-19T15:14:15Z</when>
        </TimeStamp>
        <styleUrl>#style_6606925</styleUrl>
        <ExtendedData>
          <Data name="Id">
            <value>953142037</value>
          </Data>
          <Data name="Time UTC">
            <value>5/19/2026 3:14:15 PM</value>
          </Data>
          <Data name="Time">
            <value>5/19/2026 3:14:15 PM</value>
          </Data>
          <Data name="Name">
            <value>Liz Howell </value>
          </Data>
          <Data name="Map Display Name">
            <value>Liz Howell </value>
          </Data>
          <Data name="Device Type">
            <value>inReach Mini 2</value>
          </Data>
          <Data name="IMEI">
            <value>301434030830520</value>
          </Data>
          <Data name="Incident Id">
            <value />
          </Data>
          <Data name="Latitude">
            <value>42.199473</value>
          </Data>
          <Data name="Longitude">
            <value>-71.285048</value>
          </Data>
          <Data name="Elevation">
            <value>89.77 m from MSL</value>
          </Data>
          <Data name="Velocity">
            <value>0.0 km/h</value>
          </Data>
          <Data name="Course">
            <value>0.00 ° True</value>
          </Data>
          <Data name="Valid GPS Fix">
            <value>True</value>
          </Data>
          <Data name="In Emergency">
            <value>False</value>
          </Data>
          <Data name="Text">
            <value />
          </Data>
          <Data name="Note">
            <value />
          </Data>
          <Data name="Event">
            <value>Tracking message received.</value>
          </Data>
          <Data name="Device Identifier">
            <value />
          </Data>
          <Data name="SpatialRefSystem">
            <value>WGS84</value>
          </Data>
        </ExtendedData>
        <Point>
          <extrude>false</extrude>
          <altitudeMode>absolute</altitudeMode>
          <coordinates>-71.285048,42.199473,89.77</coordinates>
        </Point>
      </Placemark>
      <Placemark>
        <name>Liz Howell </name>
        <visibility>true</visibility>
        <description>Liz Howell 's track log</description>
        <styleUrl>#linestyle_6606925</styleUrl>
        <LineString>
          <tessellate>true</tessellate>
          <coordinates>-71.285048,42.199473,89.77</coordinates>
        </LineString>
      </Placemark>
    </Folder>
  </Document>
</kml>